#dP2019  1  8  0  0  0.00000000      96 __u+U IGS08 FIT  IAC
## 2035 172800.00000000   900.00000000 58491 0.0000000000000
+   93   C01C02C04C05C06C07C08C09C10C11C12C13C14E01E02E03E04
+        E05E07E08E09E11E12E13E14E15E18E19E21E24E25E26E27E30
+        E31E33E36G01G02G03G05G06G07G08G09G10G11G12G13G14G15
+        G16G17G18G19G20G21G22G23G24G25G26G27G28G29G30G31G32
+        J01J02J03R01R02R03R04R05R07R08R09R10R11R13R14R15R17
+        R18R19R20R21R22R23R24R26  0  0  0  0  0  0  0  0  0
++        13 12 12 12  8  9  8  8  9  7  8  8  7  5  5  5  5
++         6  6  6  5  6  6  6  6  6  6  5  5  5  6  5  5  5
++         5  6  5  3  6  3  3  3  3  3  3  3  3  6  3  3  3
++         3  3  7  6  6  3  3  3  3  3  3  3  3  3  3  3  3
++         9 10 10  5  5  5  5  5  5  5  5  5  5  5  5  5  5
++         5  5  5  5  5  5  5  8  0  0  0  0  0  0  0  0  0
%c M  cc GPS ccc cccc cccc cccc cccc ccccc ccccc ccccc ccccc
%c cc cc ccc ccc cccc cccc cccc cccc ccccc ccccc ccccc ccccc
%f  1.2500000  1.025000000  0.00000000000  0.000000000000000
%f  0.0000000  0.000000000  0.00000000000  0.000000000000000
%i    0    0    0    0      0      0      0      0         0
%i    0    0    0    0      0      0      0      0         0
/* INFORMATION & ANALYSIS CENTER (IAC)            FINAL DATA
/* S/V CLOCKS ARE ALIGNED TO GPS & GLONASS TIME RESPECTIVELY
/* USING THE BROADCAST EPHEMERIS                            
/* PCV:IGS14_2035 OL/AL:FES2004  NONE     YN ORB:CoN CLK:CoN
*  2019 01 08  2 15  0.00000000
PC01 -32326.488771  27045.655775  -1107.385799 999999.999999
PC02   4413.462967  41914.997849    688.769324   -229.059515
PC04 -39642.154563  14316.781398   -628.888690   -223.336409
PC05  21930.207972  36016.696080    996.176796    -39.217666
PC06  -7840.357500  26110.562822  32530.940985    246.722660
PC07 -24305.969940  25756.147216 -23089.952717    211.587396
PC08 -14901.463237  38803.457760  -5918.127835     83.579697
PC09   5539.369657  33849.954938  24916.183479    431.606955
PC10  -8127.265912  27374.897204 -30976.991608   -389.177576
PC11 -15723.941133    265.400209 -22997.679567    -81.595062
PC12 -11272.606402 -24937.063940  -5627.120492    330.370837
PC13  -7400.291894  41014.942746   5416.129320   -472.511458
PC14 -26904.239215  -7172.574975  -1322.160452    665.189244
PE01 -25307.749509    552.658867  15342.455479   -516.078764
PE02  25338.795642   -599.358805 -15298.977204     42.411056
PE03  26085.167284  10656.798669  -9051.522547   -119.717274
PE04 -18656.653351   6076.557562  22159.435409   -195.490423
PE05  18284.028619  21269.478100   9454.961890    128.845410
PE07    185.257431 -19397.368112 -22360.013889   -108.474454
PE08  18468.077737  -6200.406468 -22286.278033   6427.758727
PE09     41.576704  19278.351875  22456.935823   6564.811939
PE11  -4754.161734  29019.140393  -3443.108998   5719.283523
PE12 -14720.821241  16193.518469 -19926.079680   5893.669348
PE13   4704.309746 -28999.635000   3628.913380    381.458135
PE14  -4361.285442 -22725.749608   9044.178231   6463.158148
PE15  14469.705151 -16623.707494  19774.033323    923.560877
PE18  -4245.694927  24986.237895 -19058.714751   5622.801003
PE19 -26003.665324 -12128.056235   7259.139095     -9.298227
PE21  -9487.723574 -13419.005712  24619.434565   -513.342745
PE24 -11251.845164  19233.757953 -19479.728174   6297.395085
PE25   9450.927788  13434.342616 -24617.495991   1930.415223
PE26  -7667.738804 -24609.878517 -14548.987150   5044.865508
PE27  11742.521610 -19284.432048  19151.280599    554.174046
PE30  25954.631362 -13941.538873   2933.463809   5206.176836
PE31 -26059.877153  13822.010637  -2442.620220    938.255578
PE33 -15800.244080  -5513.172789 -24402.304465    847.877161
PE36   7873.765108  24441.306756  14735.256046    762.245282
PG01  13842.409744 -22209.071704   3259.731479   -141.701191
PG02 -16918.545282   4655.413041 -19284.219917   -107.229100
PG03  15175.012777 -13039.960974 -17470.203335    175.687802
PG05 -26547.212510   2491.721295    470.745924      0.724449
PG06 -11780.090359  -9526.126925 -21775.556893    301.232384
PG07   3937.114964 -23827.161189  10749.721792     55.805198
PG08  13458.692410  -6891.265887  21893.795551   -128.300764
PG09  -4896.381844 -23004.504283 -12381.248147    474.348861
PG10  15891.491531  11599.994639  17977.538682    139.274087
PG11  10004.366246 -21313.493292  11966.139444   -678.347735
PG12 -18227.986179  10612.451799 -16225.901073    278.146875
PG13 -16652.933917  -1826.881097  20499.306554    -79.053034
PG14  17704.254827  16527.187296 -10803.727696    -93.498135
PG15 -11643.993345  10723.174650  21059.258603   -333.141344
PG16  26782.354925    228.141702    779.017338    -11.387593
PG17 -14413.044377 -22261.759833  -1851.552908     -7.796598
PG18  16744.900395 -16118.353235  12240.880353     13.585759
PG19 -17432.843097 -16325.498576 -11793.547763   -365.664875
PG20   5994.436451  14891.671904  21054.877379    520.876329
PG21    209.544009  23464.537675  13328.619383   -273.115650
PG22  21362.462896 -11006.663940 -11028.775199   -617.639143
PG23   4285.194055 -17864.661437 -18726.652310   -201.198998
PG24 -15240.543357  19989.630186   7909.132814    -60.500062
PG25  -6495.232304  14830.127271 -21198.691162   -702.743022
PG26  24713.232581   4399.166120  -8948.910065     90.221297
PG27  18051.724154   4008.541970  19088.024957    -45.259549
PG28 -13027.166495 -13375.662341  19477.418662    761.240177
PG29    916.242698  21857.125535 -15081.721780    298.167699
PG30  -4987.731684 -18419.668430  18419.014753    -32.351149
PG31  13831.130534   6365.126321 -21761.669767     67.313073
PG32  16945.054750  20084.440920  -4196.105332   -284.612617
PJ01 -27960.822147  24312.169971  25227.325979   -219.967278
PJ02 -35134.727218  23313.394074   4030.532526     -0.796367
PJ03 -17738.548038  24984.028430 -24382.453440      3.394644
PR01 -20158.947794 -13090.152092  -8566.395707     37.605567
PR02 -22357.812678  -3975.915789  11596.060587    348.312301
PR03 -10348.286812   7029.994552  22254.306649    153.901451
PR04   8196.012356  13927.763243  19750.828202    290.473426
PR05  21216.471709  12655.885942   6400.096389     19.469479
PR07   9982.730174  -7214.108395 -22315.928226    -55.395858
PR08  -7455.679396 -13794.601391 -20072.388723     19.667518
PR09  21426.085343  -9371.266461 -10098.931786     47.849564
PR10  18515.193835 -16457.920383   5899.488919     39.172094
PR11   4239.046170 -15000.730660  20193.318936    -52.798715
PR13 -21053.357860   9065.185533  11173.819237    -18.765154
PR14 -18385.113351  16677.951207  -5877.199446     34.717415
PR15  -5189.104265  15210.691651 -19783.709153     99.197931
PR17  -6169.310932  17764.679722 -17198.952262    194.374612
PR18   1655.416085  25411.063946  -1917.078674     29.452414
PR19   8085.612905  19352.625818  14522.274544    -62.314057
PR20  10524.916333    500.351322  23244.637687   -364.899466
PR21   5897.996387 -18224.756267  16866.786634    -24.335664
PR22  -2673.197881 -25296.190231   -538.643300    -64.328577
PR23  -9648.238670 -15338.744719 -17953.611859    201.843990
PR24 -10429.131399   1386.266407 -23254.836357   -175.795858
PR26  10709.113153   2412.402252  23038.953273     14.912375
EOF
